NORAD_CAT_ID,OBJECT_NAME,OBJECT_TYPE,EPOCH,MEAN_MOTION,ECCENTRICITY,INCLINATION,RA_OF_ASC_NODE,ARG_OF_PERICENTER,MEAN_ANOMALY,BSTAR,MEAN_MOTION_DOT,MEAN_MOTION_DDOT,TLE_LINE0,TLE_LINE1,TLE_LINE2,SEMIMAJOR_AXIS,PERIOD,APOGEE,PERIGEE,DECAYED
52674.0,STARLINK-3936,PAYLOAD,2023-07-11 17:02:39,15.08836815,0.0001016,53.216,197.5073,76.6506,283.4599,4.5836e-05,4.42e-06,0.0,0 STARLINK-3936,1 52674U 22053U   23192.71017489  .00000442  00000-0  45836-4 0  9990,2 52674  53.2160 197.5073 0001016  76.6506 283.4599 15.08836815 63872,6917.89,95.438,540.458,539.052,0.0
52674.0,STARLINK-3936,PAYLOAD,2023-07-13 16:44:13,15.08837521,0.0001054,53.2159,188.5863,80.8146,279.2965,4.2569e-05,3.9e-06,0.0,0 STARLINK-3936,1 52674U 22053U   23194.69737742  .00000390  00000-0  42569-4 0  9992,2 52674  53.2159 188.5863 0001054  80.8146 279.2965 15.08837521 64175,6917.888,95.438,540.482,539.024,0.0
52674.0,STARLINK-3936,PAYLOAD,2023-07-14 22:56:33,15.08840005,0.0001082,53.2163,182.9361,82.4563,277.6552,5.3835e-05,5.69e-06,0.0,0 STARLINK-3936,1 52674U 22053U   23195.95593774  .00000569  00000-0  53835-4 0  9993,2 52674  53.2163 182.9361 0001082  82.4563 277.6552 15.08840005 64369,6917.88,95.438,540.494,538.997,0.0
52674.0,STARLINK-3936,PAYLOAD,2023-07-16 05:08:52,15.08840541,0.000115,53.2165,177.2869,82.7366,277.3756,7.1968e-05,8.58e-06,0.0,0 STARLINK-3936,1 52674U 22053U   23197.21449669  .00000858  00000-0  71968-4 0  9995,2 52674  53.2165 177.2869 0001150  82.7366 277.3756 15.08840541 64550,6917.879,95.438,540.539,538.948,0.0
52674.0,STARLINK-3936,PAYLOAD,2023-07-16 16:16:34,15.08835887,0.0001123,53.216,175.2035,91.2252,268.8869,1.5443e-05,-4.2e-07,0.0,0 STARLINK-3936,1 52674U 22053U   23197.67818104 -.00000042  00000-0  15443-4 0  9991,2 52674  53.2160 175.2035 0001123  91.2252 268.8869 15.08835887 64622,6917.893,95.438,540.535,538.981,0.0
52674.0,STARLINK-3936,PAYLOAD,2023-07-18 01:39:40,15.08838581,0.00012,53.2165,168.9593,85.7257,274.3872,0.0001076,1.425e-05,0.0,0 STARLINK-3936,1 52674U 22053U   23199.06921660  .00001425  00000-0  10760-3 0  9999,2 52674  53.2165 168.9593 0001200  85.7257 274.3872 15.08838581 64837,6917.885,95.438,540.58,538.92,0.0
52674.0,STARLINK-3936,PAYLOAD,2023-07-18 08:01:12,15.08844649,0.0001251,53.2167,167.7699,86.7096,273.4039,0.00014595,2.036e-05,0.0,0 STARLINK-3936,1 52674U 22053U   23199.33417224  .00002036  00000-0  14595-3 0  9994,2 52674  53.2167 167.7699 0001251  86.7096 273.4039 15.08844649 64872,6917.866,95.437,540.597,538.866,0.0
52674.0,STARLINK-3936,PAYLOAD,2023-07-19 06:16:37,15.08837529,0.0001345,53.218,163.6064,98.5974,261.5171,5.7695e-05,6.3e-06,0.0,0 STARLINK-3936,1 52674U 22053U   23200.26154093  .00000630  00000-0  57695-4 0  9998,2 52674  53.2180 163.6064 0001345  98.5974 261.5171 15.08837529 65019,6917.888,95.438,540.683,538.822,0.0
52674.0,STARLINK-3936,PAYLOAD,2023-07-20 06:07:24,15.08836796,0.0001185,53.2165,159.1473,86.1166,273.9962,-6.1127e-05,-1.26e-05,0.0,0 STARLINK-3936,1 52674U 22053U   23201.25514858 -.00001260  00000-0 -61127-4 0  9994,2 52674  53.2165 159.1473 0001185  86.1166 273.9962 15.08836796 65160,6917.89,95.438,540.575,538.935,0.0
52674.0,STARLINK-3936,PAYLOAD,2023-07-21 07:33:34,15.0884503,0.0001164,53.2168,154.3911,89.9927,270.1198,3.231e-06,-2.36e-06,0.0,0 STARLINK-3936,1 52674U 22053U   23202.31498416 -.00000236  00000-0  32310-5 0  9997,2 52674  53.2168 154.3911 0001164  89.9927 270.1198 15.08845030 65329,6917.865,95.437,540.535,538.925,0.0
52674.0,STARLINK-3936,PAYLOAD,2023-07-24 05:30:32,15.08841161,0.0001241,53.2168,141.3054,96.29,263.8234,-1.508e-06,-3.12e-06,0.0,0 STARLINK-3936,1 52674U 22053U   23205.22954760 -.00000312  00000-0 -15080-5 0  9990,2 52674  53.2168 141.3054 0001241  96.2900 263.8234 15.08841161 66200,6917.877,95.437,540.6,538.883,0.0
52674.0,STARLINK-3936,PAYLOAD,2023-07-25 05:21:20,15.08840239,0.0001537,53.2188,136.8431,87.9175,272.1993,5.5575e-05,5.97e-06,0.0,0 STARLINK-3936,1 52674U 22053U   23206.22314873  .00000597  00000-0  55575-4 0  9991,2 52674  53.2188 136.8431 0001537  87.9175 272.1993 15.08840239 66355,6917.88,95.438,540.808,538.681,0.0
52674.0,STARLINK-3936,PAYLOAD,2023-07-26 02:01:21,15.08838129,0.0001313,53.2168,132.9784,91.8454,268.2689,3.6794e-05,2.98e-06,0.0,0 STARLINK-3936,1 52674U 22053U   23207.08427205  .00000298  00000-0  36794-4 0  9990,2 52674  53.2168 132.9784 0001313  91.8454 268.2689 15.08838129 66484,6917.886,95.438,540.659,538.843,0.0
52674.0,STARLINK-3936,PAYLOAD,2023-07-26 17:55:11,15.08861494,0.0001427,53.2168,130.005,83.9358,276.1796,-0.00025488,-4.345e-05,0.0,0 STARLINK-3936,1 52674U 22053U   23207.74666288 -.00004345  00000-0 -25488-3 0  9995,2 52674  53.2168 130.0050 0001427  83.9358 276.1796 15.08861494 66141,6917.815,95.436,540.667,538.693,0.0
52674.0,STARLINK-3936,PAYLOAD,2023-07-26 21:05:58,15.08838394,0.000131,53.2165,129.4118,84.4634,275.6508,0.00012192,1.653e-05,0.0,0 STARLINK-3936,1 52674U 22053U   23207.87914875  .00001653  00000-0  12192-3 0  9992,2 52674  53.2165 129.4118 0001310  84.4634 275.6508 15.08838394 66608,6917.885,95.438,540.657,538.844,0.0
52674.0,STARLINK-3936,PAYLOAD,2023-07-27 01:52:07,15.08846971,0.0001101,53.2172,128.5196,82.3867,277.7251,0.00017649,2.523e-05,0.0,0 STARLINK-3936,1 52674U 22053U   23208.07786164  .00002523  00000-0  17649-3 0  9992,2 52674  53.2172 128.5196 0001101  82.3867 277.7251 15.08846971 66636,6917.859,95.437,540.486,538.962,0.0
52674.0,STARLINK-3936,PAYLOAD,2023-07-27 19:21:24,15.08820335,0.0001267,53.2165,125.249,87.8917,272.2221,-0.00011272,-2.08e-05,0.0,0 STARLINK-3936,1 52674U 22053U   23208.80652916 -.00002080  00000-0 -11272-3 0  9996,2 52674  53.2165 125.2490 0001267  87.8917 272.2221 15.08820335 66305,6917.94,95.439,540.682,538.929,0.0
52674.0,STARLINK-3936,PAYLOAD,2023-07-27 20:56:47,15.08820714,0.0001244,53.2165,124.9514,88.7998,271.3137,-0.0001076,-1.999e-05,0.0,0 STARLINK-3936,1 52674U 22053U   23208.87276933 -.00001999  00000-0 -10760-3 0  9993,2 52674  53.2165 124.9514 0001244  88.7998 271.3137 15.08820714 66758,6917.939,95.439,540.665,538.944,0.0
52674.0,STARLINK-3936,PAYLOAD,2023-07-28 04:53:42,15.08828218,0.000118,53.2166,123.4643,84.2077,275.905,-3.8981e-05,-9.08e-06,0.0,0 STARLINK-3936,1 52674U 22053U   23209.20396521 -.00000908  00000-0 -38981-4 0  9992,2 52674  53.2166 123.4643 0001180  84.2077 275.9050 15.08828218 66362,6917.916,95.438,540.598,538.965,0.0
52674.0,STARLINK-3936,PAYLOAD,2023-07-28 17:36:46,15.08842705,0.0001028,53.2169,121.0852,90.4905,269.6204,-6.3459e-06,-3.89e-06,0.0,0 STARLINK-3936,1 52674U 22053U   23209.73387710 -.00000389  00000-0 -63459-5 0  9992,2 52674  53.2169 121.0852 0001028  90.4905 269.6204 15.08842705 66448,6917.872,95.437,540.448,539.026,0.0
52674.0,STARLINK-3936,PAYLOAD,2023-07-29 01:33:41,15.08852192,0.0001055,53.217,119.5988,81.7879,278.3233,8.1402e-05,1.008e-05,0.0,0 STARLINK-3936,1 52674U 22053U   23210.06506875  .00001008  00000-0  81402-4 0  9999,2 52674  53.2170 119.5988 0001055  81.7879 278.3233 15.08852192 66490,6917.843,95.437,540.438,538.978,0.0
52674.0,STARLINK-3936,PAYLOAD,2023-07-29 17:27:34,15.08835933,0.0001411,53.2157,116.625,82.1808,277.9344,0.00027671,4.118e-05,0.0,0 STARLINK-3936,1 52674U 22053U   23210.72747955  .00004118  00000-0  27671-3 0  9990,2 52674  53.2157 116.6250 0001411  82.1808 277.9344 15.08835933 66591,6917.893,95.438,540.734,538.782,0.0
52674.0,STARLINK-3936,PAYLOAD,2023-07-30 23:39:53,15.08844529,0.0001228,53.2172,110.9735,86.1335,273.9797,-2.6978e-05,-7.17e-06,0.0,0 STARLINK-3936,1 52674U 22053U   23211.98603868 -.00000717  00000-0 -26978-4 0  9996,2 52674  53.2172 110.9735 0001228  86.1335 273.9797 15.08844529 66788,6917.867,95.437,540.581,538.882,0.0
52674.0,STARLINK-3936,PAYLOAD,2023-08-02 02:32:13,15.08846809,0.0001213,53.2166,101.4597,84.1382,275.9749,9.6137e-05,1.243e-05,0.0,0 STARLINK-3936,1 52674U 22053U   23214.10571421  .00001243  00000-0  96137-4 0  9999,2 52674  53.2166 101.4597 0001213  84.1382 275.9749 15.08846809 67105,6917.86,95.437,540.564,538.885,0.0
52674.0,STARLINK-3936,PAYLOAD,2023-08-02 18:26:05,15.08832614,0.0001303,53.2169,98.4864,98.8124,261.3016,0.00029582,4.422e-05,0.0,0 STARLINK-3936,1 52674U 22053U   23214.76812005  .00004422  00000-0  29582-3 0  9998,2 52674  53.2169  98.4864 0001303  98.8124 261.3016 15.08832614 67202,6917.903,95.438,540.669,538.867,0.0
52674.0,STARLINK-3936,PAYLOAD,2023-08-03 02:23:00,15.08861055,0.000117,53.2161,96.9994,106.0496,254.0625,0.00043788,6.692e-05,0.0,0 STARLINK-3936,1 52674U 22053U   23215.09931030  .00006692  00000-0  43788-3 0  9990,2 52674  53.2161  96.9994 0001170 106.0496 254.0625 15.08861055 67258,6917.816,95.436,540.49,538.872,0.0
52674.0,STARLINK-3936,PAYLOAD,2023-08-03 18:16:52,15.08829547,0.0001026,53.216,94.0261,94.9607,265.1503,-0.0002052,-3.551e-05,0.0,0 STARLINK-3936,1 52674U 22053U   23215.76172147 -.00003551  00000-0 -20520-3 0  9992,2 52674  53.2160  94.0261 0001026  94.9607 265.1503 15.08829547 67351,6917.912,95.438,540.487,539.068,0.0
52674.0,STARLINK-3936,PAYLOAD,2023-08-04 03:49:11,15.08834325,0.0001002,53.2158,92.2417,88.687,271.4237,0.00029153,4.354e-05,0.0,0 STARLINK-3936,1 52674U 22053U   23216.15916296  .00004354  00000-0  29153-3 0  9998,2 52674  53.2158  92.2417 0001002  88.6870 271.4237 15.08834325 67418,6917.898,95.438,540.456,539.07,0.0
52674.0,STARLINK-3936,PAYLOAD,2023-08-05 10:01:31,15.08851374,9.81e-05,53.2154,86.5916,85.5846,274.5258,0.0005575,8.599e-05,0.0,0 STARLINK-3936,1 52674U 22053U   23217.41772314  .00008599  00000-0  55750-3 0  9996,2 52674  53.2154  86.5916 0000981  85.5846 274.5258 15.08851374 67609,6917.846,95.437,540.389,539.032,0.0
52674.0,STARLINK-3936,PAYLOAD,2023-08-06 09:52:18,15.08832331,0.0001075,53.2154,82.131,72.3236,287.7874,-0.00029802,-5.027e-05,0.0,0 STARLINK-3936,1 52674U 22053U   23218.41132316 -.00005027  00000-0 -29802-3 0  9993,2 52674  53.2154  82.1310 0001075  72.3236 287.7874 15.08832331 67759,6917.904,95.438,540.513,539.025,0.0
